[{"OBJECT_NAME":"STARLINK-2536","OBJECT_ID":"2021-036AL","EPOCH":"2026-03-10T00:00:02.999808","MEAN_MOTION":15.25636252,"ECCENTRICITY":7.57e-5,"INCLINATION":53.142,"RA_OF_ASC_NODE":89.5333,"ARG_OF_PERICENTER":115.4986,"MEAN_ANOMALY":131.3346,"EPHEMERIS_TYPE":0,"CLASSIFICATION_TYPE":"U","NORAD_CAT_ID":48310,"ELEMENT_SET_NO":999,"REV_AT_EPOCH":579,"BSTAR":0.064824603,"MEAN_MOTION_DOT":0.01836196,"MEAN_MOTION_DDOT":0},{"OBJECT_NAME":"OBJECT A","OBJECT_ID":"2025-234A","EPOCH":"2026-03-09T23:03:34.210368","MEAN_MOTION":15.32505956,"ECCENTRICITY":0.00130678,"INCLINATION":97.4388,"RA_OF_ASC_NODE":139.352,"ARG_OF_PERICENTER":148.634,"MEAN_ANOMALY":211.5684,"EPHEMERIS_TYPE":0,"CLASSIFICATION_TYPE":"U","NORAD_CAT_ID":66053,"ELEMENT_SET_NO":999,"REV_AT_EPOCH":2164,"BSTAR":0.0014840662,"MEAN_MOTION_DOT":0.00046856,"MEAN_MOTION_DDOT":0}]
